STARLINK-35663          
1 66491U 25263G   25342.83335647  .00002942  00000+0  55957-4 0  9990
2 66491  43.0002 147.9859 0001631 287.6149 135.9075 15.50572951  5003
STARLINK-35673          
1 66492U 25263H   25342.83335647 -.00491791  00000+0 -88608-2 0  9994
2 66492  43.0004 147.9817 0001759 296.3973 129.0069 15.50748251  5008
STARLINK-35597          
1 66493U 25263J   25342.83335647  .00003729  00000+0  69389-4 0  9990
2 66493  43.0003 147.9756 0001434 273.3821 153.9727 15.50567501  5001
STARLINK-35689          
1 66494U 25263K   25342.83335647  .00005081  00000+0  92421-4 0  9997
2 66494  43.0003 147.9911 0001449 274.5841 147.0244 15.50565915  5001
STARLINK-35832          
1 66495U 25263L   25342.83335647 -.00002518  00000+0 -37122-4 0  9999
2 66495  43.0003 147.9710 0001697 294.0845 135.1868 15.50574753  5005
STARLINK-35909          
1 66496U 25263M   25342.83335647  .00000580  00000+0  15718-4 0  9992
2 66496  43.0003 147.9661 0001568 271.6501 159.5420 15.50562884  5004
STARLINK-35899          
1 66497U 25263N   25342.83335647 -.00019241  00000+0 -32298-3 0  9990
2 66497  43.0003 147.9613 0001746 285.6270 147.4798 15.50574794  5005
STARLINK-35907          
1 66498U 25263P   25342.83335647 -.00049500  00000+0 -84309-3 0  9992
2 66498  43.0008 147.9568 0001246 272.0668 162.9497 15.50585454  5009
STARLINK-35816          
1 66499U 25263Q   25342.83335647  .00016378  00000+0  28464-3 0  9998
2 66499  43.0002 147.9466 0001391 273.3285 165.5284 15.50556679  5001
STARLINK-35894          
1 66500U 25263R   25342.83335647  .00002869  00000+0  54705-4 0  9999
2 66500  43.0002 148.0616 0001086 298.3370  93.7402 15.50576147  5002
STARLINK-35897          
1 66501U 25263S   25342.83335647 -.00054782  00000+0 -93363-3 0  9995
2 66501  43.0004 147.9424 0001716 293.0299 147.7234 15.50604470  5006
STARLINK-35922          
1 66502U 25263T   25342.83335647 -.00033763  00000+0 -57210-3 0  9993
2 66502  43.0002 147.9271 0001620 272.7111 173.8151 15.50581949  5009
